[{"OBJECT_NAME":"STARLINK-31086","OBJECT_ID":"2023-203J","EPOCH":"2026-03-09T09:56:08.300544","MEAN_MOTION":15.27576315,"ECCENTRICITY":0.00011445,"INCLINATION":43.0011,"RA_OF_ASC_NODE":68.2659,"ARG_OF_PERICENTER":238.1492,"MEAN_ANOMALY":121.9249,"EPHEMERIS_TYPE":0,"CLASSIFICATION_TYPE":"U","NORAD_CAT_ID":58626,"ELEMENT_SET_NO":999,"REV_AT_EPOCH":12352,"BSTAR":-3.0981804e-5,"MEAN_MOTION_DOT":-1.114e-5,"MEAN_MOTION_DDOT":0},{"OBJECT_NAME":"MESON-1","OBJECT_ID":"2024-043AK","EPOCH":"2026-03-09T21:36:16.481664","MEAN_MOTION":15.29893494,"ECCENTRICITY":0.00095452,"INCLINATION":97.5469,"RA_OF_ASC_NODE":205.2839,"ARG_OF_PERICENTER":227.1432,"MEAN_ANOMALY":132.9007,"EPHEMERIS_TYPE":0,"CLASSIFICATION_TYPE":"U","NORAD_CAT_ID":59131,"ELEMENT_SET_NO":999,"REV_AT_EPOCH":11189,"BSTAR":0.0002974823,"MEAN_MOTION_DOT":8.544e-5,"MEAN_MOTION_DDOT":0}]
